start=new Date('2022-05-12T00:00:00.000Z').valueOf();
sats=[{"MEAN_MOTION_DDOT":"0.0000000000000","TIME_SYSTEM":"UTC","ECCENTRICITY":"0.00012050","REF_FRAME":"TEME","EPHEMERIS_TYPE":"0","DECAY_DATE":null,"MEAN_ELEMENT_THEORY":"SGP4","PERIAPSIS":"348.970","REV_AT_EPOCH":"444","RCS_SIZE":"MEDIUM","RA_OF_ASC_NODE":"16.7466","CLASSIFICATION_TYPE":"U","NORAD_CAT_ID":"52331","MEAN_MOTION":"15.73192739","MEAN_ANOMALY":"347.6580","TLE_LINE1":"1 52331U 22045A   22131.91667824  .00015423  00000-0  11414-3 0  9998","INCLINATION":"53.2142","SITE":"AFETR","ELEMENT_SET_NO":"999","COUNTRY_CODE":"US","SEMIMAJOR_AXIS":"6727.916","LAUNCH_DATE":"2022-04-29","FILE":"3441094","BSTAR":"0.00011414000000","ARG_OF_PERICENTER":"94.2244","EPOCH":"2022-05-11T22:00:00.999936","TLE_LINE2":"2 52331  53.2142  16.7466 0001205  94.2244 347.6580 15.73192739  4448","OBJECT_ID":"2022-045A","CENTER_NAME":"EARTH","MEAN_MOTION_DOT":"0.00015423","OBJECT_TYPE":"PAYLOAD","PERIOD":"91.534","OBJECT_NAME":"STARLINK-3889","GP_ID":"203286519","APOAPSIS":"350.592"},{"OBJECT_TYPE":"PAYLOAD","PERIOD":"91.533","TLE_LINE2":"2 52332  53.2136  16.7500 0000927  95.7170 344.3945 15.73197329  4444","CENTER_NAME":"EARTH","OBJECT_ID":"2022-045B","MEAN_MOTION_DOT":"0.00021107","GP_ID":"203286561","APOAPSIS":"350.391","OBJECT_NAME":"STARLINK-3831","ELEMENT_SET_NO":"999","INCLINATION":"53.2136","TLE_LINE1":"1 52332U 22045B   22131.91667824  .00021107  00000-0  15444-3 0  9992","SITE":"AFETR","BSTAR":"0.00015444000000","EPOCH":"2022-05-11T22:00:00.999936","ARG_OF_PERICENTER":"95.7170","COUNTRY_CODE":"US","SEMIMAJOR_AXIS":"6727.903","FILE":"3441061","LAUNCH_DATE":"2022-04-29","REV_AT_EPOCH":"444","RCS_SIZE":"LARGE","RA_OF_ASC_NODE":"16.7500","MEAN_ELEMENT_THEORY":"SGP4","PERIAPSIS":"349.144","CLASSIFICATION_TYPE":"U","NORAD_CAT_ID":"52332","MEAN_MOTION":"15.73197329","MEAN_ANOMALY":"344.3945","MEAN_MOTION_DDOT":"0.0000000000000","TIME_SYSTEM":"UTC","EPHEMERIS_TYPE":"0","DECAY_DATE":null,"ECCENTRICITY":"0.00009270","REF_FRAME":"TEME"},{"MEAN_MOTION_DOT":"0.00019200","TLE_LINE2":"2 52333  53.2139  16.7487 0000958  92.7650 348.0501 15.73173833  4438","CENTER_NAME":"EARTH","OBJECT_ID":"2022-045C","OBJECT_TYPE":"PAYLOAD","PERIOD":"91.535","OBJECT_NAME":"STARLINK-3847","GP_ID":"203286053","APOAPSIS":"350.479","TLE_LINE1":"1 52333U 22045C   22131.91667824  .00019200  00000-0  14106-3 0  9998","INCLINATION":"53.2139","SITE":"AFETR","ELEMENT_SET_NO":"999","SEMIMAJOR_AXIS":"6727.970","COUNTRY_CODE":"US","LAUNCH_DATE":"2022-04-29","FILE":"3441061","EPOCH":"2022-05-11T22:00:00.999936","ARG_OF_PERICENTER":"92.7650","BSTAR":"0.00014106000000","PERIAPSIS":"349.190","MEAN_ELEMENT_THEORY":"SGP4","RCS_SIZE":"LARGE","REV_AT_EPOCH":"443","RA_OF_ASC_NODE":"16.7487","MEAN_MOTION":"15.73173833","MEAN_ANOMALY":"348.0501","CLASSIFICATION_TYPE":"U","NORAD_CAT_ID":"52333","MEAN_MOTION_DDOT":"0.0000000000000","TIME_SYSTEM":"UTC","ECCENTRICITY":"0.00009580","REF_FRAME":"TEME","DECAY_DATE":null,"EPHEMERIS_TYPE":"0"},{"DECAY_DATE":null,"EPHEMERIS_TYPE":"0","ECCENTRICITY":"0.00010120","REF_FRAME":"TEME","MEAN_MOTION_DDOT":"0.0000000000000","TIME_SYSTEM":"UTC","MEAN_MOTION":"15.73273627","MEAN_ANOMALY":"351.5013","CLASSIFICATION_TYPE":"U","NORAD_CAT_ID":"52334","RCS_SIZE":"MEDIUM","REV_AT_EPOCH":"443","RA_OF_ASC_NODE":"16.7450","MEAN_ELEMENT_THEORY":"SGP4","PERIAPSIS":"348.869","ARG_OF_PERICENTER":"90.9810","EPOCH":"2022-05-11T22:00:00.999936","BSTAR":"-0.00033588000000","SEMIMAJOR_AXIS":"6727.685","COUNTRY_CODE":"US","FILE":"3441062","LAUNCH_DATE":"2022-04-29","ELEMENT_SET_NO":"999","TLE_LINE1":"1 52334U 22045D   22131.91667824 -.00047639  00000-0 -33588-3 0  9993","INCLINATION":"53.2136","SITE":"AFETR","GP_ID":"203286087","APOAPSIS":"350.231","OBJECT_NAME":"STARLINK-3880","OBJECT_TYPE":"PAYLOAD","PERIOD":"91.529","MEAN_MOTION_DOT":"-0.00047639","TLE_LINE2":"2 52334  53.2136  16.7450 0001012  90.9810 351.5013 15.73273627  4435","OBJECT_ID":"2022-045D","CENTER_NAME":"EARTH"},{"SITE":"AFETR","TLE_LINE1":"1 52335U 22045E   22131.91667824 -.00008287  00000-0 -54733-4 0  9996","INCLINATION":"53.2138","ELEMENT_SET_NO":"999","FILE":"3441061","LAUNCH_DATE":"2022-04-29","COUNTRY_CODE":"US","SEMIMAJOR_AXIS":"6727.944","BSTAR":"-0.00005473300000","EPOCH":"2022-05-11T22:00:00.999936","ARG_OF_PERICENTER":"91.2250","OBJECT_ID":"2022-045E","TLE_LINE2":"2 52335  53.2138  16.7439 0001083  91.2250 351.9478 15.73182952  4445","CENTER_NAME":"EARTH","MEAN_MOTION_DOT":"-0.00008287","PERIOD":"91.534","OBJECT_TYPE":"PAYLOAD","OBJECT_NAME":"STARLINK-3814","APOAPSIS":"350.537","GP_ID":"203286553","TIME_SYSTEM":"UTC","MEAN_MOTION_DDOT":"0.0000000000000","REF_FRAME":"TEME","ECCENTRICITY":"0.00010830","EPHEMERIS_TYPE":"0","DECAY_DATE":null,"PERIAPSIS":"349.080","MEAN_ELEMENT_THEORY":"SGP4","RA_OF_ASC_NODE":"16.7439","REV_AT_EPOCH":"444","RCS_SIZE":"MEDIUM","CLASSIFICATION_TYPE":"U","NORAD_CAT_ID":"52335","MEAN_ANOMALY":"351.9478","MEAN_MOTION":"15.73182952"},{"CLASSIFICATION_TYPE":"U","NORAD_CAT_ID":"52336","MEAN_ANOMALY":"357.2358","MEAN_MOTION":"15.73148851","RA_OF_ASC_NODE":"16.7418","REV_AT_EPOCH":"444","RCS_SIZE":"LARGE","PERIAPSIS":"349.033","MEAN_ELEMENT_THEORY":"SGP4","EPHEMERIS_TYPE":"0","DECAY_DATE":null,"REF_FRAME":"TEME","ECCENTRICITY":"0.00012980","TIME_SYSTEM":"UTC","MEAN_MOTION_DDOT":"0.0000000000000","APOAPSIS":"350.779","GP_ID":"203286054","OBJECT_NAME":"STARLINK-3823","PERIOD":"91.536","OBJECT_TYPE":"PAYLOAD","OBJECT_ID":"2022-045F","TLE_LINE2":"2 52336  53.2140  16.7418 0001298  86.5396 357.2358 15.73148851  4448","CENTER_NAME":"EARTH","MEAN_MOTION_DOT":"0.00012737","BSTAR":"0.00009523200000","EPOCH":"2022-05-11T22:00:00.999936","ARG_OF_PERICENTER":"86.5396","LAUNCH_DATE":"2022-04-29","FILE":"3441061","COUNTRY_CODE":"US","SEMIMAJOR_AXIS":"6728.041","ELEMENT_SET_NO":"999","SITE":"AFETR","INCLINATION":"53.2140","TLE_LINE1":"1 52336U 22045F   22131.91667824  .00012737  00000-0  95232-4 0  9999"},{"REF_FRAME":"TEME","ECCENTRICITY":"0.00012340","EPHEMERIS_TYPE":"0","DECAY_DATE":null,"TIME_SYSTEM":"UTC","MEAN_MOTION_DDOT":"0.0000000000000","NORAD_CAT_ID":"52337","CLASSIFICATION_TYPE":"U","MEAN_MOTION":"15.73161072","MEAN_ANOMALY":"347.3499","PERIAPSIS":"349.041","MEAN_ELEMENT_THEORY":"SGP4","RA_OF_ASC_NODE":"16.7474","REV_AT_EPOCH":"444","RCS_SIZE":"LARGE","FILE":"3441061","LAUNCH_DATE":"2022-04-29","COUNTRY_CODE":"US","SEMIMAJOR_AXIS":"6728.006","BSTAR":"0.00009756300000","ARG_OF_PERICENTER":"94.0449","EPOCH":"2022-05-11T22:00:00.999936","SITE":"AFETR","INCLINATION":"53.2140","TLE_LINE1":"1 52337U 22045G   22131.91667824  .00013071  00000-0  97563-4 0  9991","ELEMENT_SET_NO":"999","OBJECT_NAME":"STARLINK-3797","APOAPSIS":"350.701","GP_ID":"203286064","TLE_LINE2":"2 52337  53.2140  16.7474 0001234  94.0449 347.3499 15.73161072  4440","CENTER_NAME":"EARTH","OBJECT_ID":"2022-045G","MEAN_MOTION_DOT":"0.00013071","PERIOD":"91.535","OBJECT_TYPE":"PAYLOAD"},{"MEAN_MOTION_DDOT":"0.0000000000000","TIME_SYSTEM":"UTC","ECCENTRICITY":"0.00014870","REF_FRAME":"TEME","EPHEMERIS_TYPE":"0","DECAY_DATE":null,"MEAN_ELEMENT_THEORY":"SGP4","PERIAPSIS":"348.663","REV_AT_EPOCH":"444","RCS_SIZE":"MEDIUM","RA_OF_ASC_NODE":"16.7383","CLASSIFICATION_TYPE":"U","NORAD_CAT_ID":"52338","MEAN_ANOMALY":"358.8876","MEAN_MOTION":"15.73233939","INCLINATION":"53.2139","TLE_LINE1":"1 52338U 22045H   22131.91667824  .00016347  00000-0  12049-3 0  9996","SITE":"AFETR","ELEMENT_SET_NO":"999","COUNTRY_CODE":"US","SEMIMAJOR_AXIS":"6727.798","FILE":"3441061","LAUNCH_DATE":"2022-04-29","BSTAR":"0.00012049000000","ARG_OF_PERICENTER":"86.4790","EPOCH":"2022-05-11T22:00:00.999936","TLE_LINE2":"2 52338  53.2139  16.7383 0001487  86.4790 358.8876 15.73233939  4440","CENTER_NAME":"EARTH","OBJECT_ID":"2022-045H","MEAN_MOTION_DOT":"0.00016347","OBJECT_TYPE":"PAYLOAD","PERIOD":"91.531","OBJECT_NAME":"STARLINK-3815","GP_ID":"203286555","APOAPSIS":"350.664"},{"NORAD_CAT_ID":"52339","CLASSIFICATION_TYPE":"U","MEAN_MOTION":"15.73192029","MEAN_ANOMALY":"355.4620","REV_AT_EPOCH":"444","RCS_SIZE":"LARGE","RA_OF_ASC_NODE":"16.7403","MEAN_ELEMENT_THEORY":"SGP4","PERIAPSIS":"349.220","EPHEMERIS_TYPE":"0","DECAY_DATE":null,"ECCENTRICITY":"0.00008360","REF_FRAME":"TEME","MEAN_MOTION_DDOT":"0.0000000000000","TIME_SYSTEM":"UTC","GP_ID":"203286102","APOAPSIS":"350.345","OBJECT_NAME":"STARLINK-3792","OBJECT_TYPE":"PAYLOAD","PERIOD":"91.534","CENTER_NAME":"EARTH","TLE_LINE2":"2 52339  53.2136  16.7403 0000836  89.4565 355.4620 15.73192029  4445","OBJECT_ID":"2022-045J","MEAN_MOTION_DOT":"0.00021144","BSTAR":"0.00015474000000","EPOCH":"2022-05-11T22:00:00.999936","ARG_OF_PERICENTER":"89.4565","COUNTRY_CODE":"US","SEMIMAJOR_AXIS":"6727.918","FILE":"3441073","LAUNCH_DATE":"2022-04-29","ELEMENT_SET_NO":"999","INCLINATION":"53.2136","TLE_LINE1":"1 52339U 22045J   22131.91667824  .00021144  00000-0  15474-3 0  9993","SITE":"AFETR"},{"MEAN_MOTION_DDOT":"0.0000000000000","TIME_SYSTEM":"UTC","EPHEMERIS_TYPE":"0","DECAY_DATE":null,"ECCENTRICITY":"0.00014330","REF_FRAME":"TEME","REV_AT_EPOCH":"443","RCS_SIZE":"MEDIUM","RA_OF_ASC_NODE":"16.7346","MEAN_ELEMENT_THEORY":"SGP4","PERIAPSIS":"348.830","NORAD_CAT_ID":"52340","CLASSIFICATION_TYPE":"U","MEAN_ANOMALY":"356.2829","MEAN_MOTION":"15.73187992","ELEMENT_SET_NO":"999","TLE_LINE1":"1 52340U 22045K   22131.91667824  .00018216  00000-0  13399-3 0  9995","INCLINATION":"53.2133","SITE":"AFETR","BSTAR":"0.00013399000000","EPOCH":"2022-05-11T22:00:00.999936","ARG_OF_PERICENTER":"91.0469","COUNTRY_CODE":"US","SEMIMAJOR_AXIS":"6727.929","LAUNCH_DATE":"2022-04-29","FILE":"3441061","OBJECT_TYPE":"PAYLOAD","PERIOD":"91.534","OBJECT_ID":"2022-045K","TLE_LINE2":"2 52340  53.2133  16.7346 0001433  91.0469 356.2829 15.73187992  4438","CENTER_NAME":"EARTH","MEAN_MOTION_DOT":"0.00018216","GP_ID":"203286562","APOAPSIS":"350.759","OBJECT_NAME":"STARLINK-3818"}];
